BEIDOU-3 G3             
1 45807U 20040A   26061.97402785 -.00000369  00000+0  00000+0 0  9994
2 45807   2.1864  67.1119 0004228 315.1868 239.5484  1.00276035 21002
GALAXY 30 (G-30)        
1 46114U 20056C   26062.15947694  .00000021  00000+0  00000+0 0  9991
2 46114   0.0168 121.9575 0002205 218.1627 113.1970  1.00272235 20229
QZS-1R (MICHIBIKI-1R)   
1 49336U 21096A   26060.38447264 -.00000259  00000+0  00000+0 0  9990
2 49336  37.2374  81.1754 0747027 269.6443  80.6815  1.00291836 15925
QZS-6 (MICHIBIKI-6)     
1 62876U 25023A   26062.10525334 -.00000249  00000+0  00000+0 0  9994
2 62876   0.0441 303.3589 0001898  30.6550 315.2513  1.00270372  3898
